      2.10          N: GNSS NAV DATA                        RINEX VERSION / TYPE
fic2rin                                 07/31/2021 00:17:18 PGM / RUN BY / DATE
                                                            END OF HEADER
22 21  7 30 18  0  0.0-5.505527369678e-04 9.436007530894e-12 0.000000000000e+00
    5.800000000000e+01-8.531250000000e+00 5.337365179826e-09-1.821627672573e+00
   -4.246830940247e-07 6.866547162645e-03 6.005167961121e-06 5.153773633957e+03
    4.968000000000e+05-2.328306436539e-07 2.652967050544e+00 6.519258022308e-08
    9.359594538510e-01 2.500312500000e+02-9.142407964960e-01-8.505711439880e-09
    1.242908915002e-10 1.000000000000e+00 2.168000000000e+03 0.000000000000e+00
    2.400000000000e+00 0.000000000000e+00-1.769512891769e-08 5.800000000000e+01
    4.896000000000e+05 4.000000000000e+00
23 21  7 30 18  0  0.0 7.748696953058e-05-5.115907697473e-12 0.000000000000e+00
    5.900000000000e+01-1.606250000000e+01 4.774127432999e-09 2.911075929540e+00
   -7.674098014832e-07 1.465617329814e-03 5.640089511871e-06 5.153659528732e+03
    4.968000000000e+05-4.284083843231e-08 2.728011207748e+00 6.146728992462e-08
    9.652043302575e-01 2.733437500000e+02 2.632402888638e+00-8.211056309168e-09
    1.371485699313e-10 1.000000000000e+00 2.168000000000e+03 0.000000000000e+00
    2.400000000000e+00 0.000000000000e+00-8.381903171539e-09 5.900000000000e+01
    4.896000000000e+05 4.000000000000e+00
13 21  7 30 18  0  0.0 1.646419987082e-04 5.115907697473e-12 0.000000000000e+00
    8.200000000000e+01-2.687500000000e+01 4.330537527128e-09-1.299473154559e+00
   -1.505017280579e-06 5.186625057831e-03 9.249895811081e-06 5.153682147980e+03
    4.968000000000e+05 1.359730958939e-07-2.349789687087e+00 1.080334186554e-07
    9.682898790344e-01 2.061875000000e+02 9.573480724985e-01-7.856755836845e-09
   -3.214419607765e-10 1.000000000000e+00 2.168000000000e+03 0.000000000000e+00
    2.400000000000e+00 0.000000000000e+00-1.117587089539e-08 8.200000000000e+01
    4.896000000000e+05 4.000000000000e+00
 8 21  7 30 18  0  0.0-3.073830157518e-05-1.364242052659e-12 0.000000000000e+00
    1.660000000000e+02-2.846875000000e+01 4.381253925383e-09-6.854320673397e-01
   -1.471489667892e-06 6.380615988746e-03 6.599351763725e-06 5.153633014679e+03
    4.968000000000e+05 1.769512891769e-07 6.413924780341e-01-9.126961231232e-08
    9.669451398663e-01 2.520937500000e+02 5.940738573321e-02-8.155696860368e-09
   -1.078616357272e-10 1.000000000000e+00 2.168000000000e+03 0.000000000000e+00
    2.400000000000e+00 0.000000000000e+00 5.122274160385e-09 1.660000000000e+02
    4.896000000000e+05 4.000000000000e+00
18 21  7 30 18  0  0.0 3.370326012373e-04-3.069544618484e-12 0.000000000000e+00
    4.500000000000e+01 6.750000000000e+00 4.391254341941e-09-2.626857409464e+00
    4.880130290985e-07 1.743052736856e-03 8.981674909592e-06 5.153655376434e+03
    4.968000000000e+05-2.421438694000e-08 1.728279335143e+00 1.117587089539e-08
    9.685453586590e-01 2.135312500000e+02 2.888054953253e+00-7.960331579762e-09
    3.196561721055e-10 1.000000000000e+00 2.168000000000e+03 0.000000000000e+00
    2.400000000000e+00 0.000000000000e+00-8.381903171539e-09 8.130000000000e+02
    4.896000000000e+05 4.000000000000e+00
14 21  7 30 18  0  0.0 3.514438867569e-05-8.753886504564e-12 0.000000000000e+00
    1.930000000000e+02 3.256250000000e+01 4.667694428209e-09 1.984740393455e+00
    1.657754182816e-06 9.920576121658e-04 5.174428224564e-06 5.153649013519e+03
    4.968000000000e+05-1.490116119385e-08-3.438468839743e-01 2.048909664154e-08
    9.563820813582e-01 2.758125000000e+02 3.011149923121e+00-8.254629552740e-09
   -2.857261873569e-12 1.000000000000e+00 2.168000000000e+03 0.000000000000e+00
    2.400000000000e+00 0.000000000000e+00-7.916241884232e-09 4.490000000000e+02
    4.896000000000e+05 4.000000000000e+00
11 21  7 30 18  0  0.0 2.606026828289e-05 6.139089236967e-12 0.000000000000e+00
    1.540000000000e+02 8.937500000000e+00 4.656979696183e-09 2.981149354437e-01
    5.364418029785e-07 5.184544716030e-04 7.998198270798e-06 5.153674673080e+03
    4.968000000000e+05-1.117587089539e-08 1.765960282260e+00 2.793967723846e-08
    9.598009282241e-01 2.257187500000e+02 1.767756482336e+00-8.131410134442e-09
    2.492960984689e-10 1.000000000000e+00 2.168000000000e+03 0.000000000000e+00
    7.680000000000e+02 6.300000000000e+01-5.587935447693e-09 4.100000000000e+02
    4.896000000000e+05 4.000000000000e+00
28 21  7 30 18  0  0.0 5.287011153996e-04-6.707523425575e-12 0.000000000000e+00
    5.900000000000e+01 2.753125000000e+01 4.388039922333e-09-2.256114617144e-01
    1.387670636177e-06 1.746177312452e-02 5.550682544708e-06 5.153724945068e+03
    4.968000000000e+05-3.203749656677e-07-2.934634630626e-01-3.911554813385e-08
    9.720981971175e-01 2.818437500000e+02-1.344090990031e+00-8.363562661670e-09
    5.643092200298e-11 1.000000000000e+00 2.168000000000e+03 0.000000000000e+00
    4.850000000000e+00 6.300000000000e+01-1.117587089539e-08 5.900000000000e+01
    4.896000000000e+05 4.000000000000e+00
 2 21  7 30 20  0  0.0-6.231367588043e-04-2.501110429876e-12 0.000000000000e+00
    2.000000000000e+01 7.812500000000e-01 4.412326648258e-09-1.651415907644e+00
    5.327165126801e-07 2.019676915370e-02 7.947906851768e-06 5.153729238510e+03
    5.040000000000e+05 4.284083843231e-08 1.632266078845e+00 5.085021257401e-07
    9.634014227020e-01 2.284062500000e+02-1.503075000604e+00-7.965688945775e-09
    2.292952653539e-10 1.000000000000e+00 2.168000000000e+03 0.000000000000e+00
    2.400000000000e+00 0.000000000000e+00-1.769512891769e-08 2.000000000000e+01
    4.968000000000e+05 4.000000000000e+00
 1 21  7 30 20  0  0.0 6.123739294708e-04-1.136868377216e-11 0.000000000000e+00
    5.800000000000e+01-9.062500000000e+00 3.928377918423e-09-1.938102920577e+00
   -5.997717380524e-07 1.107408467215e-02 8.430331945419e-06 5.153681476593e+03
    5.040000000000e+05 1.601874828339e-07 1.717432043355e+00-5.960464477539e-08
    9.848122382055e-01 2.252500000000e+02 8.796913864487e-01-7.672462446000e-09
    4.007309777680e-10 1.000000000000e+00 2.168000000000e+03 0.000000000000e+00
    3.400000000000e+00 0.000000000000e+00 5.122274160385e-09 5.800000000000e+01
    4.968000000000e+05 4.000000000000e+00
 5 21  7 30 20  0  0.0-4.955148324370e-05-1.250555214938e-12 0.000000000000e+00
    4.900000000000e+01-1.046875000000e+01 4.993422281795e-09 6.655970720811e-01
   -3.278255462646e-07 6.086438428611e-03 5.897134542465e-06 5.153560384750e+03
    5.040000000000e+05 1.676380634308e-08 2.716929882715e+00 6.705522537231e-08
    9.572968381815e-01 2.645937500000e+02 9.529693685079e-01-8.430708315699e-09
    8.464638300447e-11 1.000000000000e+00 2.168000000000e+03 0.000000000000e+00
    2.400000000000e+00 0.000000000000e+00-1.117587089539e-08 4.900000000000e+01
    4.968000000000e+05 4.000000000000e+00
 3 21  7 30 20  0  0.0-2.373321913183e-04-1.261923898710e-11 0.000000000000e+00
    5.900000000000e+01-1.915625000000e+01 4.617335187687e-09-2.966248278616e+00
   -1.030042767525e-06 3.749113413505e-03 6.144866347313e-06 5.153549165726e+03
    5.040000000000e+05 3.539025783539e-08 2.754619626359e+00-1.695007085800e-07
    9.703482662145e-01 2.640625000000e+02 9.054091980873e-01-8.099623096099e-09
    1.575065607805e-10 1.000000000000e+00 2.168000000000e+03 0.000000000000e+00
    2.400000000000e+00 0.000000000000e+00 1.862645149231e-09 5.900000000000e+01
    4.968000000000e+05 4.000000000000e+00
 4 21  7 30 20  0  0.0-2.032690681517e-04-5.684341886081e-13 0.000000000000e+00
    1.500000000000e+02-3.746875000000e+01 4.608763402066e-09-2.461889405633e-01
   -2.153217792511e-06 1.320297596976e-03 8.735805749893e-06 5.153714328766e+03
    5.040000000000e+05 2.235174179077e-08-2.448144352547e+00-7.450580596924e-09
    9.607455241874e-01 2.104062500000e+02-2.977893641955e+00-8.047120909172e-09
   -3.289422731946e-10 1.000000000000e+00 2.168000000000e+03 0.000000000000e+00
    2.400000000000e+00 0.000000000000e+00-4.190951585770e-09 9.180000000000e+02
    4.968000000000e+05 4.000000000000e+00
15 21  7 30 20  0  0.0-1.318510621786e-04 2.728484105319e-12 0.000000000000e+00
    1.500000000000e+01-3.518750000000e+01 5.504872157164e-09-5.957000560870e-01
   -1.754611730576e-06 1.340491767041e-02 7.485970854759e-06 5.153652437210e+03
    5.040000000000e+05-1.136213541031e-07-2.600236778413e+00 2.142041921616e-07
    9.294339088015e-01 2.171250000000e+02 1.005409194346e+00-8.699290931814e-09
   -2.885834492304e-10 1.000000000000e+00 2.168000000000e+03 0.000000000000e+00
    2.400000000000e+00 0.000000000000e+00-1.071020960808e-08 1.500000000000e+01
    4.968000000000e+05 4.000000000000e+00
24 21  7 30 20  0  0.0 1.927739940584e-04 1.273292582482e-11 0.000000000000e+00
    1.100000000000e+01 4.062500000000e+01 4.965921136262e-09-1.562265846666e+00
    2.086162567139e-06 1.128729723860e-02 8.899718523026e-06 5.153719827652e+03
    5.040000000000e+05 2.440065145493e-07-1.506386813069e+00-1.490116119385e-07
    9.345366914101e-01 1.953125000000e+02 7.465621371268e-01-8.097122991959e-09
   -5.035924052165e-11 1.000000000000e+00 2.168000000000e+03 0.000000000000e+00
    2.400000000000e+00 0.000000000000e+00 2.793967723846e-09 1.100000000000e+01
    4.968000000000e+05 4.000000000000e+00
29 21  7 30 20  0  0.0-3.885328769684e-04-6.025402399246e-12 0.000000000000e+00
    2.600000000000e+01-2.125000000000e+01 3.926949287486e-09 3.577845624089e-01
   -1.156702637672e-06 1.974746817723e-03 7.452443242073e-06 5.153600252151e+03
    5.040000000000e+05-7.450580596924e-09 7.328235925641e-01 3.725290298462e-09
    9.836720866679e-01 2.445625000000e+02 2.262750676877e+00-7.880685405037e-09
   -8.178912113090e-11 1.000000000000e+00 2.168000000000e+03 0.000000000000e+00
    2.400000000000e+00 0.000000000000e+00-1.024454832077e-08 2.600000000000e+01
    4.968000000000e+05 4.000000000000e+00
